1 48430C 21040C   23028.46993056 -.00006941  00000+0 -46508-3 0   283
2 48430  53.0521 217.3086 0001202  86.3748 283.8230 15.06403182    12
1 48430C 21040C   23028.80118056  .00000104  00000+0  69765-5 0   285
2 48430  53.0521 215.8215 0001187  88.7410 278.8411 15.06393261    14
1 48430C 21040C   23029.12340278  .00005995  00000+0  40165-3 0   299
2 48430  53.0521 214.3750 0001173  88.7853 227.1805 15.06392757    11
1 48430C 21040C   23029.47548611 -.00008611  00000+0 -57699-3 0   298
2 48430  53.0520 212.7944 0001141  89.5614 336.8125 15.06403894    14
1 48430C 21040C   23029.79909722 -.00000941  00000+0 -63085-4 0   292
2 48430  53.0518 211.3417 0001093  91.4823 290.8275 15.06392290    13
1 48430C 21040C   23030.16854167  .00004582  00000+0  30697-3 0   304
2 48430  53.0516 209.6832 0001044  90.0488 136.8703 15.06396219    10
1 48430C 21040C   23030.49493056 -.00013133  00000+0 -88004-3 0   305
2 48430  53.0514 208.2180 0001053  90.6101 107.2968 15.06406291    14
1 48430C 21040C   23030.79770833 -.00003187  00000+0 -21363-3 0   302
2 48430  53.0512 206.8588 0001037  88.5346 312.2671 15.06389807    19
1 48430C 21040C   23031.13520833  .00003816  00000+0  25572-3 0   318
2 48430  53.0510 205.3437 0001058  85.9118 346.1661 15.06386175    15
1 48430C 21040C   23031.49423611 -.00008284  00000+0 -55516-3 0   310
2 48430  53.0508 203.7320 0001039  84.4714 135.6853 15.06398266    18
1 48430C 21040C   23031.80326389  .00007950  00000+0  53278-3 0   319
2 48430  53.0507 202.3447 0001038  81.5184  15.4400 15.06383173    14
1 48430C 21040C   23032.12479167  .00004940  00000+0  33099-3 0   324
2 48430  53.0507 200.9012 0001096  80.0635 321.5004 15.06394895    19
1 48430C 21040C   23032.46993056 -.00018287  00000+0 -12254-2 0   329
2 48430  53.0506 199.3517 0001121  80.4520  33.8360 15.06412605    13
1 48430C 21040C   23032.79631944  .00001906  00000+0  12775-3 0   327
2 48430  53.0507 197.8864 0001130  80.2177   5.0881 15.06384621    13
